HELIOS 1B               
1 25977U 99064A   20215.59017153 -.00000001  00000-0  69518-5 0  9995
2 25977  98.2864  12.0951 0001610 141.7938 218.3388 14.82487455381955
TERRA                   
1 25994U 99068A   20215.79705711  .00000060  00000-0  23284-4 0  9997
2 25994  98.2121 289.4345 0001244 100.1318 260.0021 14.57112119 97069
SL-16 R/B               
1 26070U 00006B   20215.80870112 -.00000065  00000-0 -88736-5 0  9998
2 26070  71.0008  75.8461 0014870  48.9341 311.3063 14.15464494 59196
MTI                     
1 26102U 00014A   20215.66926078  .00003428  00000-0  50593-4 0  9993
2 26102  97.4976 100.1501 0009161  63.1372 297.0828 15.56097893131703
TITAN 4B R/B            
1 26474U 00047B   20215.65280216  .00000039  00000-0  14309-4 0  9997
2 26474  67.9947 308.5234 0053450 151.2353 209.1756 14.95972810 86155
ENVISAT                 
1 27386U 02009A   20215.63572097  .00000014  00000-0  17994-4 0  9995
2 27386  98.1361 220.2564 0001423  90.0572  19.5005 14.37987700965253
IDEFIX & ARIANE 42P R/B 
1 27422U 02021B   20215.79886520 -.00000028  00000-0  53687-5 0  9992
2 27422  98.3540 174.9562 0013466  93.1644 267.1080 14.29291535949893
AQUA                    
1 27424U 02022A   20215.82685355  .00000043  00000-0  19507-4 0  9990
2 27424  98.2104 155.7957 0001313 137.8783 276.1189 14.57112381970675
CZ-4B R/B               
1 27432U 02024C   20215.62146925 -.00000029  00000-0  89964-5 0  9994
2 27432  99.0884 218.5987 0051242  46.9701  59.3399 14.14095536940176
MIDORI II (ADEOS-II)    
1 27597U 02056A   20215.79953294  .00000003  00000-0  18618-4 0  9992
2 27597  98.5219 162.2275 0000902 133.2553 226.8704 14.27454397918423
H-2A R/B                
1 27601U 02056E   20215.72318396  .00000039  00000-0  28815-4 0  9998
2 27601  98.2232 249.1091 0073038 139.1513 332.2427 14.31961195921313
CZ-4B R/B               
1 28059U 03049C   20215.74974211 -.00000003  00000-0  11102-4 0  9998
2 28059  98.4837 132.8011 0050152 358.5177   1.5862 14.52605753889533
CZ-2C R/B               
1 28222U 04012C   20215.82309047  .00000074  00000-0  85471-5 0  9997
2 28222  97.6803 178.4992 0045805 230.3370 187.4607 15.10429113892998
SL-16 R/B               
1 28353U 04021B   20215.39420016 -.00000273  00000-0 -11788-3 0  9995
2 28353  70.9992 202.9746 0007664 267.4090  92.6155 14.14234193833644
CZ-4B R/B               
1 28415U 04035C   20215.65310779  .00000343  00000-0  26630-4 0  9991
2 28415  97.6106 256.7165 0051238 193.2484 166.7401 15.06885304870597
CZ-2C R/B               
1 28480U 04046B   20215.67387748 -.00000002  00000-0  13916-4 0  9993
2 28480  98.0756 247.0323 0143208  88.2924  20.4597 14.25726469817000
ARIANE 5 R/B            
1 28499U 04049H   20215.82925231  .00000031  00000-0  11023-4 0  9996
2 28499  98.0578 317.7576 0093345 122.9760 349.1110 14.80038271842993
CZ-2D R/B               
1 28738U 05024B   20215.63882414  .00000233  00000-0  17170-4 0  9993
2 28738  97.3808 236.6773 0012729  31.3510 328.8477 15.12070097828383
SUZAKU (ASTRO-EII)      
1 28773U 05025A   20215.78612171  .00000760  00000-0  32533-4 0  9995
2 28773  31.3827  75.3819 0004658 311.1011  48.9234 15.17614789831008
ALOS (DAICHI)           
1 28931U 06002A   20215.86391418  .00000069  00000-0  22078-4 0  9999
2 28931  97.8479 199.3271 0001272  28.1596 331.9677 14.62726704774489
H-2A R/B                
1 28932U 06002B   20215.78208696 -.00000016  00000-0  49739-5 0  9993
2 28932  98.3237 208.4284 0088882 169.1205 243.6747 14.92252543788052
AKARI (ASTRO-F)         
1 28939U 06005A   20215.48972152  .00001525  00000-0  42621-4 0  9992
2 28939  98.2350 194.8989 0093268 162.2537 198.1999 15.34440989787973
RESURS-DK 1             
1 29228U 06021A   20215.74931449  .00000038  00000-0  10174-4 0  9991
2 29228  69.9356  70.1445 0004139 350.0792  10.0287 15.02555041779703
GENESIS 1               
1 29252U 06029A   20215.25760684  .00000217  00000-0  20401-4 0  9996
2 29252  64.5239 151.7684 0002889 145.0268 215.1045 15.18180618775136
CZ-4B R/B               
1 29507U 06046C   20215.63306058 -.00000606  00000-0 -41889-4 0  9998
2 29507  97.7535 237.4346 0046310  10.8841 349.3373 15.00645255752296
CZ-2C R/B               
1 31114U 07010B   20215.62106375 -.00000070  00000-0 -14310-4 0  9990
2 31114  98.2571  65.3861 0060507 131.7897 228.8473 14.19325592689555
COSMO-SKYMED 1          
1 31598U 07023A   20215.72254150 -.00000338  00000-0 -35859-4 0  9994
2 31598  97.8865  38.2099 0001482  90.0904 270.0480 14.82154588711689
GENESIS 2               
1 31789U 07028A   20215.36938630  .00000093  00000-0  15047-4 0  9996
2 31789  64.5016 193.0791 0039741 236.4273 123.3053 15.17299567722137
COSMOS 2428             
1 31792U 07029A   20215.31985665 -.00000359  00000-0 -16898-3 0  9997
2 31792  70.9073 176.6471 0010041 349.3981  10.6926 14.12308818675340
SL-16 R/B               
1 31793U 07029B   20215.81043080 -.00000010  00000-0  19765-4 0  9999
2 31793  70.9754 148.9830 0002385 258.6603 167.3145 14.14428567676242
KORONAS-FOTON           
1 33504U 09003A   20215.71498729  .00000563  00000-0  27721-4 0  9991
2 33504  82.4428 176.7936 0020559 116.7513 243.5826 15.15671068634495
H-2A R/B                
1 38341U 12025E   20215.70138742  .00000116  00000-0  21115-4 0  9993
2 38341  98.5055  13.7242 0056780  83.5791 277.1883 14.84053300444221
CUSAT 2 & FALCON 9 R/B  
1 39271U 13055G   20215.48216125  .00006574  00000-0  15637-3 0  9992
2 39271  80.9635 217.4933 0587403  31.9084 331.6303 14.48477735357392
SL-4 R/B                
1 39679U 14021B   20215.48608293 -.00000052  00000-0  16103-4 0  9995
2 39679  51.6144 253.7890 0172317 105.2574 256.7517 15.06451855345966
ALOS-2                  
1 39766U 14029A   20215.83963243  .00000071  00000-0  16384-4 0  9999
2 39766  97.9227 311.7729 0001486  89.9674 270.1708 14.79473059334555
CZ-2C R/B               
1 40306U 14071B   20215.81123571  .00002920  00000-0  63147-4 0  9992
2 40306  97.3269 162.7451 0015533   4.3061 355.8319 15.45219095321009
SL-27 R/B               
1 40354U 14084B   20215.70826562  .00000619  00000-0  16349-4 0  9992
2 40354  74.7382 292.3993 0036111  98.0614 262.4698 15.40283840315254
YAOGAN 29               
1 41038U 15069A   20215.93929019  .00000014  00000-0  86958-5 0  9995
2 41038  98.0128 203.8398 0002243  91.7514 268.3967 14.80454277253156
ASTRO-H (HITOMI)        
1 41337U 16012A   20215.02128683  .00000191  00000-0  85219-5 0  9999
2 41337  31.0061  80.8376 0012390 162.2022 197.9049 14.98695605244342
SHENZHOU-11 MODULE      
1 41868U 16061G   20215.91028124  .00064858  10264-4  10553-3 0  9993
2 41868  42.7833 205.1081 0013048 136.5529 306.5347 16.02894580213513
HXMT (HUIYAN)           
1 42758U 17034A   20215.85858735  .00000113  00000-0  20760-4 0  9994
2 42758  43.0173 141.4168 0012037 316.4277  87.3516 15.08858816172880
CZ-2C R/B               
1 43521U 18054D   20215.46473648  .00000282  00000-0  17445-4 0  9992
2 43521  35.1527 256.3967 0082545 163.9263 196.4095 15.11030358116113
AEOLUS                  
1 43600U 18066A   20215.52058936  .00019170  00000-0  76189-4 0  9995
2 43600  96.7187 221.2237 0004950  92.6526 267.5314 15.86700864112670
SAOCOM 1A               
1 43641U 18076A   20215.93330475  .00000012  00000-0  81267-5 0  9996
2 43641  97.8899  41.3818 0001421  81.9819 278.1561 14.82152893 98481
CREW DRAGON DEMO-1 DEB  
1 44064U 19011B   20215.81409260  .00013781  00000-0  13801-3 0  9996
2 44064  51.6344  77.3884 0002789 218.9781 141.1014 15.65869206 80178
